satname,norad_id,inclination_deg,eccentricity,mean_motion_rev_per_day,perigee_km,apogee_km,l1,l2
STARLINK-1572,46060,53.1617,0.0001399,15.30281112,474.01414423118604,475.9316443796115,1 46060U 20055AK  26169.83648094  .00009285  00000+0  32441-3 0  9994,2 46060  53.1617   4.2927 0001399  98.1732 261.9427 15.30281112324528
STARLINK-1573,46061,53.1613,9.93e-05,15.31710898,470.02741878759934,471.38759930709693,1 46061U 20055AL  26169.80389994  .00004129  00000+0  14469-3 0  9995,2 46061  53.1613   3.4864 0000993  55.9429 304.1666 15.31710898324567
STARLINK-1577,46063,53.1595,0.0001075,15.31716471,469.9546474728395,471.4271454705804,1 46063U 20055AN  26169.96235914  .00003398  00000+0  12115-3 0  9999,2 46063  53.1595   2.7448 0001075  88.3161 271.7964 15.31716471324588
STARLINK-1583,46064,53.161,0.0001467,15.31704095,469.7230598064898,471.73251673536834,1 46064U 20055AP  26169.78066954  .00000184  00000+0  17713-4 0  9996,2 46064  53.1610   4.0914 0001467  91.7810 268.3360 15.31704095324541
STARLINK-1536,46070,53.1596,7.89e-05,15.31717639,470.1470425427742,471.2277870354292,1 46070U 20055AV  26169.78195059  .00002422  00000+0  89741-4 0  9999,2 46070  53.1596 351.4735 0000789  80.3710 279.7380 15.31717639324726
STARLINK-1542,46073,53.1598,0.0001134,15.31711928,469.92778008992445,471.4810973282247,1 46073U 20055AY  26169.80632427  .00004191  00000+0  14668-3 0  9990,2 46073  53.1598 354.3290 0001134  98.7399 261.3731 15.31711928324676
STARLINK-1549,46074,53.0515,6.08e-05,15.30437219,474.09022698709396,474.92350848141086,1 46074U 20055AZ  26169.77952371  .00211024  00000+0  68858-2 0  9994,2 46074  53.0515 351.6346 0000608 151.3599 208.7434 15.30437219324694
STARLINK-1551,46075,53.161,8.9e-05,15.31732725,470.032904069677,471.2519868109657,1 46075U 20055BA  26169.77295098 -.00002966  00000+0 -83775-4 0  9993,2 46075  53.1610 351.4526 0000890  74.9831 285.1269 15.31732725324711
STARLINK-1552,46076,53.1615,0.0001183,15.31708384,469.9047838799506,471.52522226387737,1 46076U 20055BB  26169.75892331  .00001363  00000+0  55655-4 0  9999,2 46076  53.1615 351.1002 0001183  61.1490 298.9630 15.31708384324705
STARLINK-1559,46077,53.0242,5.7e-05,15.39388423,447.5275635595326,448.3057336754746,1 46077U 20055BC  26169.70502769  .00037388  00000+0  94717-3 0  9995,2 46077  53.0242 320.1279 0000570 314.2054  45.8902 15.39388423325090
STARLINK-1566,46079,53.1606,0.0001022,15.31712484,470.0028298983689,471.4027327496715,1 46079U 20055BE  26169.76356090  .00001162  00000+0  49182-4 0  9995,2 46079  53.1606 350.9320 0001022  74.7490 285.3624 15.31712484324721
STARLINK-1568,46080,53.0579,0.0002993,15.55209394,399.5148566224516,403.57317367812084,1 46080U 20055BF  26169.54928955  .00039657  00000+0  58064-3 0  9996,2 46080  53.0579 268.5690 0002993  64.3152 295.8167 15.55209394325842
STARLINK-1578,46082,53.1606,9.7e-05,15.31720205,470.0154306078257,471.3441010603983,1 46082U 20055BH  26169.76794909 -.00000587  00000+0 -71553-5 0  9994,2 46082  53.1606 351.4277 0000970  61.5283 298.5817 15.31720205324716
STARLINK-1579,46083,53.1602,0.0001173,15.31706839,469.9162377181874,471.5229794785655,1 46083U 20055BJ  26169.75425292  .00002498  00000+0  92215-4 0  9998,2 46083  53.1602 351.0277 0001173  83.2392 276.8743 15.31706839324711
STARLINK-1622,46128,53.0127,0.0004636,15.89484407,300.62972133812036,306.82514604103744,1 46128U 20057M   26170.00002315  .00175946  00000+0  57909-3 0  9996,2 46128  53.0127  79.3984 0004636 132.8688 293.4337 15.89484407  6014
STARLINK-1623,46129,53.0385,0.000508,15.77465812,334.21196233669616,341.03517507450124,1 46129U 20057N   26169.58781588  .00121815  00000+0  71343-3 0  9998,2 46129  53.0385 120.6010 0005080  73.6590 286.4988 15.77465812322728
STARLINK-1596,46141,53.0333,0.0006039,15.61739524,378.549322517747,386.7149794983343,1 46141U 20057AA  26169.97457026  .00089873  00000+0  10150-2 0  9997,2 46141  53.0333 102.4116 0006039  73.3119 286.8556 15.61739524323014
STARLINK-1597,46142,53.0382,0.0005007,15.77028117,335.5029213441676,342.2293282733499,1 46142U 20057AB  26169.69351263  .00112324  00000+0  67181-3 0  9998,2 46142  53.0382 159.8431 0005007  61.5035 298.6488 15.77028117322172
STARLINK-1606,46144,53.0293,0.0003449,16.05574401,256.72259944986126,261.30090465902776,1 46144U 20057AD  26170.01278521  .01064948  63232-3  14710-2 0  9991,2 46144  53.0293 109.2351 0003449 220.5801 139.4974 16.05574401311164
STARLINK-1608,46146,53.1562,0.0005718,15.37013545,451.03908606534515,458.8534000621121,1 46146U 20057AF  26169.77970471  .00038254  00000+0  10461-2 0  9996,2 46146  53.1562 197.9329 0005718  13.1928 346.9224 15.37013545321684
STARLINK-1667,46155,53.0081,0.000421,15.98570739,275.5810237462256,281.18581393889053,1 46155U 20057AQ  26170.00002315  .00348897  61562-4  72599-3 0  9990,2 46155  53.0081  77.9715 0004210 167.2531 214.4605 15.98570739  6022
STARLINK-1545,46156,53.0353,0.0002811,15.9158168,295.97959865897883,299.7328420474614,1 46156U 20057AR  26170.00002315  .00138871  18273-4  42756-3 0  9993,2 46156  53.0353 114.7934 0002811 191.1214 293.8166 15.91581680  6020
STARLINK-1595,46159,53.039,0.000585,15.74830272,341.1811035713845,349.047307481851,1 46159U 20057AU  26170.00002315  .00024114  00000+0  16376-3 0  9993,2 46159  53.0390 161.2481 0005850  59.0647 332.7584 15.74830272  5993
STARLINK-1598,46160,53.0424,0.0001239,15.74225706,346.00220390469894,347.6686520723533,1 46160U 20057AV  26169.97151543  .00087126  00000+0  59203-3 0  9995,2 46160  53.0424 147.5835 0001239  11.9283 348.1764 15.74225706323627
STARLINK-1626,46167,53.0387,0.0001611,15.77729219,335.79428065632055,337.95785786723627,1 46167U 20057BC  26169.36657374  .00102262  00000+0  59426-3 0  9994,2 46167  53.0387 159.7801 0001611  93.1384 266.9820 15.77729219322156
STARLINK-1633,46171,53.0316,0.0002663,15.87151607,308.4920562707075,312.0543035325236,1 46171U 20057BG  26170.00002315  .00154870  00000+0  57440-3 0  9997,2 46171  53.0316 116.9660 0002663 176.1366 115.8372 15.87151607  6010
STARLINK-1635,46172,53.0316,0.0003445,15.95768578,283.8778275706918,288.4695376310028,1 46172U 20057BH  26170.00002315  .00300431  46862-4  73121-3 0  9999,2 46172  53.0316 114.2581 0003445 190.2790 297.8332 15.95768578  6018
STARLINK-1640,46173,53.0391,0.0005794,15.74803885,341.2938120745248,349.08480259946555,1 46173U 20057BJ  26169.96696481  .00099336  00000+0  65628-3 0  9997,2 46173  53.0391 162.4419 0005794  52.6227 307.5319 15.74803885322161
